{"fetched_at":"2026-03-29T02:12:04Z","count":15717,"tles":[{"name":"GSAT0214 (GALILEO 18)","line1":"1 41862U 16069D   26087.16383991  .00000040  00000+0  00000+0 0  9998","line2":"2 41862  55.4445 103.3220 0004756 301.5492  58.4564  1.70474482 58267","category":"GPS"}]}