{
  "norad_id": 41862,
  "name": "GSAT0214 (GALILEO 18)",
  "history": [
    {
      "epoch": "2026-03-28T03:55:55.768224",
      "apogee_km": 23236.205148540135,
      "perigee_km": 23208.04937717331,
      "latitude_deg": -47.792218826928654,
      "longitude_deg": -178.07136864005588,
      "semi_major_axis_km": 29600.264262856723,
      "eccentricity": 0.0004756,
      "inclination_deg": 55.4445,
      "raan_deg": 103.322,
      "arg_perigee_deg": 301.5492,
      "mean_anomaly_deg": 58.4564,
      "mean_motion_rev_day": 1.70474482
    }
  ]
}